[Satellite]
VERSION=1.1
NAME=UKUBE-1
NICKNAME=UKUBE-1
TLE1=1 40074U 14037F   18021.13827207  .00000238  00000-0  35939-4 0  9998
TLE2=2 40074  98.3673 151.1770 0006029  74.8898 285.2981 14.83702365191494
